"Name","Street","District","X","Y"
"# 1 SUITES","LORONG 20 GEYLANG",14,103.8815945,1.312485592
"1 KING ALBERT PARK","KING ALBERT PARK",21,103.7803668,1.336627794
"18 WOODSVILLE","WOODSVILLE CLOSE",13,103.8682667,1.329660084
"26 NEWTON","NEWTON ROAD",11,103.8417675,1.315879078
"368 THOMSON","THOMSON ROAD",11,103.8423179,1.327233151
"38 I SUITES","IPOH LANE",15,103.8963723,1.311771078
"6 DERBYSHIRE","DERBYSHIRE ROAD",11,103.8458237,1.31576094
"76 SHENTON","SHENTON WAY",2,103.8455177,1.273533182
"8 @ MOUNT SOPHIA","MOUNT SOPHIA",9,103.8458731,1.301484665
"8@WOODLEIGH","WOODLEIGH CLOSE",13,103.8697628,1.336004692
"A TREASURE TROVE","PUNGGOL WALK",19,103.9001899,1.405344863
"AALTO","MEYER ROAD",15,103.8971535,1.298757558
"ADAM PARK CONDOMINIUM","ADAM ROAD",11,103.8128267,1.328195095
"ADRIA","DERBYSHIRE ROAD",11,103.8463373,1.316345667
"ALEX RESIDENCES","ALEXANDRA VIEW",3,103.8189488,1.290632258
"ALEXIS","ALEXANDRA ROAD",3,103.8073078,1.291081776
"ALLSWORTH PARK","HOLLAND ROAD",10,103.7806127,1.319973998
"ALTEZ","ENGGOR STREET",2,103.8444008,1.274504988
"AMARANDA GARDENS","SERANGOON AVENUE 3",19,103.8663775,1.349602505
"AMARYLLIS VILLE","NEWTON ROAD",11,103.8420207,1.314697603
"AMBER PARK","AMBER GARDENS",15,103.8996251,1.301114251
"AMBER RESIDENCES","AMBER ROAD",15,103.9011924,1.301480474
"AQUARIUS BY THE PARK","BEDOK RESERVOIR VIEW",16,103.9357962,1.33749438
"ARCHIPELAGO","BEDOK RESERVOIR ROAD",16,103.9205873,1.337623764
"ARDMORE II","ARDMORE PARK",10,103.8285169,1.309128368
"ARDMORE PARK","ARDMORE PARK",10,103.829418,1.310467371
"ASCENTIA SKY","ALEXANDRA VIEW",3,103.8169553,1.290888691
"ASPEN HEIGHTS","RIVER VALLEY ROAD",9,103.8399256,1.294593872
"ASTON MANSIONS","LORONG 42 GEYLANG",14,103.890533,1.313911325
"ASTOR GREEN","PINE GROVE",21,103.7767861,1.318401053
"ASTORIA PARK","LORONG MYDIN",14,103.9117979,1.3211347
"ASTRID MEADOWS","CORONATION ROAD WEST",10,103.7959239,1.319220478
"ATRIUM RESIDENCES","LORONG 28 GEYLANG",14,103.8858397,1.313400745
"AVILA GARDENS","FLORA ROAD",17,103.9650778,1.360223843
"AVON PARK","YOUNGBERG TERRACE",13,103.8701957,1.339607867
"AZALEA PARK CONDOMINIUM","FLORA ROAD",17,103.9632314,1.360169654
"BALLOTA PARK CONDOMINIUM","MARIAM WAY",17,103.9681841,1.358469418
"BANYAN CONDOMINIUM","CHWEE CHIAN ROAD",5,103.7887429,1.278366329
"BARTLEY RESIDENCES","LORONG HOW SUN",19,103.8811141,1.343343208
"BARTLEY RIDGE","MOUNT VERNON ROAD",13,103.8808556,1.340381065
"BAYSHORE PARK","BAYSHORE ROAD",16,103.9379286,1.3106804
"BEACON HEIGHTS","MAR THOMA ROAD",12,103.8623185,1.327038613
"BEDOK RESIDENCES","BEDOK NORTH DRIVE",16,103.9285622,1.324937609
"BELLE VUE RESIDENCES","OXLEY WALK",9,103.8421823,1.295456506
"BELMOND GREEN","BALMORAL ROAD",10,103.8315466,1.316015065
"BISHAN 8","BISHAN STREET 21",20,103.8470846,1.349530736
"BISHAN PARK CONDOMINIUM","SIN MING WALK",20,103.8320823,1.366070656
"BLISS@KOVAN","SIMON LANE",19,103.8832091,1.362883218
"BLOSSOMS @ WOODLEIGH","WOODLEIGH CLOSE",13,103.8686429,1.336569428
"BLUE HORIZON","WEST COAST CRESCENT",5,103.7651504,1.29754949
"BOATHOUSE RESIDENCES","UPPER SERANGOON VIEW",19,103.9033744,1.37565657
"BOTANIC GARDENS VIEW","TAMAN SERASI",10,103.8188371,1.30884523
"BOTANNIA","WEST COAST PARK",5,103.7544525,1.318390443
"BROOKVALE PARK","BROOKVALE WALK",21,103.7700524,1.32925443
"BUKIT REGENCY","UPPER BUKIT TIMAH VIEW",21,103.7705473,1.346739283
"BULLION PARK","LENTOR LOOP",26,103.8356185,1.392302188
"BURLINGTON SQUARE","BENCOOLEN STREET",7,103.8525559,1.302259407
"BUTTERWORTH 8","BUTTERWORTH LANE",15,103.8945831,1.312056851
"CAIRNHILL CREST","CAIRNHILL CIRCLE",9,103.8387819,1.305898327
"CAIRNHILL NINE","CAIRNHILL ROAD",9,103.837064,1.303644016
"CAIRNHILL PLAZA","CAIRNHILL ROAD",9,103.8369085,1.306900947
"CANBERRA RESIDENCES","CANBERRA DRIVE",27,103.825463,1.444515106
"CAPE ROYALE","COVE WAY",4,103.8400162,1.24134187
"CARABELLE","WEST COAST WAY",5,103.7562249,1.317920958
"CARDIFF RESIDENCE","CARDIFF GROVE",19,103.866231,1.35537517
"CARIBBEAN AT KEPPEL BAY","KEPPEL BAY DRIVE",4,103.8148576,1.267126261
"CARISSA PARK CONDOMINIUM","FLORA DRIVE",17,103.9643377,1.35936291
"CASA CAMBIO","LIM TUA TOW ROAD",19,103.8764868,1.353844891
"CASA FORTUNA","AH HOOD ROAD",12,103.8482468,1.328446359
"CASA MERAH","TANAH MERAH KECHIL AVENUE",16,103.9462412,1.329655046
"CASA SARINA","LORONG SARINA",14,103.9073198,1.320749613
"CASABLANCA","ROSEWOOD DRIVE",25,103.7856251,1.430113747
"CASAFINA","BEDOK SOUTH AVENUE 1",16,103.9339068,1.314603012
"CASHEW HEIGHTS CONDOMINIUM","CASHEW ROAD",23,103.7675867,1.373991181
"CASPIAN","LAKESIDE DRIVE",22,103.7181188,1.342607945
"CASTLE GREEN","YIO CHU KANG ROAD",26,103.8403196,1.386033853
"CASUARINA COVE","TANJONG RHU ROAD",15,103.8742698,1.297497935
"CAVENAGH GARDENS","CAVENAGH ROAD",9,103.8410694,1.304770204
"CAVENDISH PARK","PINE GROVE",21,103.7759024,1.316731289
"CENTRAL GREEN CONDOMINIUM","JALAN MEMBINA",3,103.8279438,1.284575963
"CENTRAL GROVE","GEYLANG EAST AVENUE 1",14,103.8846282,1.316124041
"CENTRO RESIDENCES","ANG MO KIO AVENUE 8",20,103.8484455,1.370396226
"CHANGI COURT","UPPER CHANGI ROAD EAST",16,103.9624008,1.343129906
"CHANGI GREEN","UPPER CHANGI ROAD EAST",16,103.9631068,1.344879954
"CHANGI RISE CONDOMINIUM","SIMEI RISE",18,103.9606302,1.34861479
"CHERRYHILL","LORONG LEW LIAN",19,103.8776541,1.350426371
"CHILTERN PARK","SERANGOON AVENUE 3",19,103.8630543,1.350261186
"CHUAN PARK","LORONG CHUAN",19,103.8652497,1.352264144
"CITY SQUARE RESIDENCES","KITCHENER LINK",8,103.8573966,1.31103161
"CITYLIGHTS","JELLICOE ROAD",8,103.8629965,1.308814529
"CITYSCAPE @FARRER PARK","MERGUI ROAD",8,103.8510616,1.317739228
"CLEMENTI PARK","SUNSET WAY",21,103.7659495,1.330857029
"CLEMENTIWOODS CONDOMINIUM","WEST COAST ROAD",5,103.7675028,1.295541879
"CLIVEDEN AT GRANGE","GRANGE ROAD",10,103.8266278,1.299569923
"CLOVER BY THE PARK","BISHAN STREET 25",20,103.8453318,1.35916855
"COMPASS HEIGHTS","SENGKANG SQUARE",19,103.8962892,1.391943173
"CONCOURSE SKYLINE","BEACH ROAD",7,103.8618181,1.300202265
"CORALIS","JOO CHIAT ROAD",15,103.9057134,1.304785995
"CORALS AT KEPPEL BAY","KEPPEL BAY DRIVE",4,103.8165013,1.264800506
"COSTA DEL SOL","BAYSHORE ROAD",16,103.9402258,1.311887057
"COSTA RHU","RHU CROSS",15,103.8666315,1.297003175
"COTE D'AZUR","MARINE PARADE ROAD",15,103.9038461,1.301073531
"COUNTRY PARK CONDOMINIUM","BEDOK ROAD",16,103.9548526,1.321240001
"CRADELS","LORONG LIMAU",12,103.8540901,1.324717534
"CUBE 8","THOMSON ROAD",11,103.8417244,1.328498097
"CUSCADEN RESIDENCES","CUSCADEN ROAD",10,103.8267409,1.304987672
"CYAN","KENG CHIN ROAD",10,103.8303097,1.31819706
"D'LEEDON","LEEDON HEIGHTS",10,103.8035845,1.315806503
"D'NEST","PASIR RIS GROVE",18,103.9460805,1.368380351
"DAHLIA PARK CONDOMINIUM","FLORA DRIVE",17,103.9652301,1.358569035
"DAKOTA RESIDENCES","DAKOTA CRESCENT",14,103.8870117,1.306283525
"DE ROYALE","JALAN RAMA RAMA",12,103.849143,1.328343588
"DOMAIN 21","DELTA ROAD",3,103.8258851,1.292077643
"DOMUS","IRRAWADDY ROAD",12,103.84542,1.325647509
"DOUBLE BAY RESIDENCES","SIMEI STREET 4",18,103.9565319,1.340638954
"DOVER PARKVIEW","DOVER RISE",5,103.7842818,1.306179912
"DRAYCOTT EIGHT","DRAYCOTT PARK",10,103.8318107,1.310532125
"DUCHESS CREST","DUCHESS AVENUE",10,103.8028793,1.324288606
"DUCHESS RESIDENCES","DUCHESS AVENUE",10,103.8015664,1.324452372
"DUNEARN GARDENS","DUNEARN ROAD",11,103.8389298,1.314550947
"DUO RESIDENCES","FRASER STREET",7,103.857934,1.299092162
"EAST MEADOWS","TANAH MERAH KECHIL ROAD",16,103.9445082,1.328684963
"EASTERN LAGOON","UPPER EAST COAST ROAD",15,103.9337376,1.31216878
"EASTPOINT GREEN","SIMEI STREET 3",18,103.9503936,1.338479332
"ECHELON","ALEXANDRA VIEW",3,103.8183841,1.290911502
"ECO SANCTUARY","CHESTNUT AVENUE",23,103.776791,1.371128003
"EDELWEISS PARK CONDOMINIUM","FLORA ROAD",17,103.9672166,1.357046262
"EIGHT COURTYARDS","CANBERRA DRIVE",27,103.8314437,1.438910193
"EIGHT RIVERSUITES","WHAMPOA EAST",12,103.8646859,1.321754684
"ELIAS GREEN","ELIAS GREEN",18,103.9417522,1.37199813
"ELLIOT AT THE EAST COAST","ELLIOT ROAD",15,103.9309702,1.311445008
"EMERALD GARDEN","CLUB STREET",1,103.8465891,1.281310873
"EMERALD PARK","INDUS ROAD",3,103.8301402,1.290140822
"ESPADA","ST. THOMAS WALK",9,103.8370751,1.297369734
"ESTELLA GARDENS","FLORA ROAD",17,103.9667626,1.360019413
"EUHABITAT","JALAN EUNOS",14,103.9067931,1.327742859
"EUNOS MANSION","JALAN EUNOS",14,103.9059859,1.330428655
"EUPHONY GARDENS","JALAN MATA AYER",27,103.8245786,1.425603692
"EURO-ASIA COURT","RIVER VALLEY CLOSE",9,103.837782,1.294849161
"EURO-ASIA PARK","WOODLEIGH CLOSE",13,103.8674948,1.336088841
"EVERGREEN PARK","HOUGANG AVENUE 7",19,103.8995074,1.369731035
"FABER CREST","FABER HEIGHTS",5,103.7577692,1.322649091
"FABER GARDEN CONDOMINIUM","ANGKLONG LANE",20,103.8301027,1.361996779
"FERNWOOD TERRACES","FERNWOOD TERRACE",15,103.9246599,1.309989621
"FERNWOOD TOWERS","EAST COAST AVENUE",15,103.924615,1.309775438
"FERRARIA PARK CONDOMINIUM","FLORA DRIVE",17,103.9649241,1.358122372
"FLO RESIDENCE","PUNGGOL FIELD WALK",19,103.9129596,1.391906641
"FLORIDIAN","BUKIT TIMAH ROAD",21,103.7857607,1.332616141
"FORESQUE RESIDENCES","PETIR ROAD",23,103.7761372,1.368838509
"FORTE SUITES","MERGUI ROAD",8,103.8517842,1.317784078
"FOUR SEASONS PARK","CUSCADEN WALK",10,103.8277805,1.303942821
"FULCRUM","FORT ROAD",15,103.8850113,1.298736697
"GALLOP GABLES","FARRER ROAD",10,103.8077842,1.314512483
"GARDENVISTA","DUNEARN ROAD",21,103.7808792,1.339325697
"GILSTEAD TWO","GILSTEAD ROAD",11,103.8385468,1.315295193
"GLENDALE PARK","HILLVIEW AVENUE",23,103.7651731,1.362468889
"GLENTREES","MOUNT SINAI LANE",10,103.7853333,1.316750679
"GOLDENHILL PARK CONDOMINIUM","MEI HWAN DRIVE",20,103.862351,1.352801446
"GOODLUCK GARDEN","TOH TUCK ROAD",21,103.7690431,1.34042444
"GOODWOOD RESIDENCE","BUKIT TIMAH ROAD",10,103.8359302,1.314053546
"GRAMERCY PARK","GRANGE ROAD",10,103.8270964,1.298795962
"GRANDE VISTA","CACTUS DRIVE",28,103.8521028,1.388864608
"GRANDEUR 8","ANG MO KIO CENTRAL 3",20,103.8466013,1.376470236
"GRANGE HEIGHTS","GRANGE ROAD",9,103.8349761,1.297780147
"GRANGE RESIDENCES","GRANGE ROAD",10,103.8226104,1.304328051
"GUILIN VIEW","BUKIT BATOK STREET 52",23,103.7532194,1.354810786
"GUILLEMARD EDGE","LORONG 30 GEYLANG",14,103.8860836,1.312307031
"GUILLEMARD SUITES","GUILLEMARD ROAD",14,103.8829905,1.311096066
"H2O RESIDENCES","FERNVALE LINK",28,103.879611,1.392898903
"HAIG COURT","HAIG ROAD",15,103.8977384,1.306281864
"HARBOUR VIEW TOWERS","TELOK BLANGAH DRIVE",4,103.8086149,1.272595876
"HARBOURLIGHTS","TELOK BLANGAH ROAD",4,103.8229709,1.266649214
"HAWAII TOWER","MEYER ROAD",15,103.8904569,1.296804885
"HAZEL PARK CONDOMINIUM","HAZEL PARK TERRACE",23,103.7647358,1.372339738
"HERITAGE VIEW","DOVER RISE",5,103.7842024,1.304495825
"HIGHGATE","TOH TUCK ROAD",21,103.7656728,1.340681325
"HILLBROOKS","HILLVIEW AVENUE",23,103.7621103,1.358605098
"HILLCREST ARCADIA","ARCADIA ROAD",11,103.8084255,1.335723099
"HILLINGTON GREEN","HILLVIEW AVENUE",23,103.7645752,1.360465474
"HILLION RESIDENCES","JELEBU ROAD",23,103.7625403,1.378568634
"HILLSTA","PHOENIX ROAD",23,103.7566238,1.376435914
"HILLTOPS","CAIRNHILL CIRCLE",9,103.8385246,1.307929611
"HILLVIEW GREEN","HUME AVENUE",21,103.7636783,1.358401373
"HILLVIEW HEIGHTS","HILLVIEW AVENUE",23,103.7657861,1.360859305
"HILLVIEW PARK","HILLVIEW AVENUE",23,103.7661328,1.364646166
"HILLVIEW REGENCY","BUKIT  BATOK EAST AVENUE 2",23,103.7594507,1.35233815
"HOLLAND PEAK","HOLLAND HILL",10,103.8018009,1.308657118
"HORIZON TOWERS","LEONIE HILL ROAD",9,103.8326098,1.297706097
"HUME PARK I","HUME AVENUE",21,103.768031,1.353581441
"HUME PARK II","HUME AVENUE",21,103.7680692,1.35516696
"HUNDRED TREES","WEST COAST DRIVE",5,103.7580921,1.315621552
"ICON","GOPENG STREET",2,103.8444593,1.275249651
"IMPERIAL HEIGHTS","IPOH LANE",15,103.8952471,1.311730508
"INTERNATIONAL PLAZA","ANSON ROAD",2,103.8459021,1.275796707
"J GATEWAY","GATEWAY DRIVE",22,103.7424713,1.335497741
"JADE RESIDENCES","LEW LIAN VALE",19,103.8780324,1.349125964
"JARDIN","DUNEARN ROAD",21,103.7807741,1.337772819
"JERVOIS LODGE","JERVOIS ROAD",10,103.8230529,1.294070158
"JEWEL @ BUANGKOK","COMPASSVALE BOW",19,103.8923146,1.381188499
"KAP RESIDENCES","KING ALBERT PARK",21,103.7792258,1.336961836
"KATONG REGENCY","TANJONG KATONG ROAD",15,103.8945799,1.315083984
"KENSINGTON PARK CONDOMINIUM","KENSINGTON PARK DRIVE",19,103.8685939,1.366728181
"KENSINGTON SQUARE","JALAN LOKAM",19,103.8824721,1.345289206
"KERRISDALE","STURDEE ROAD",8,103.8584154,1.313472699
"KIM SIA COURT","JALAN JINTAN",9,103.8338644,1.305989478
"KING'S MANSION","AMBER GARDENS",15,103.8979373,1.300193792
"KINGSFORD . HILLVIEW PEAK","HILLVIEW RISE",23,103.7636775,1.364931949
"KOVAN MELODY","KOVAN ROAD",19,103.8825689,1.359320743
"KOVAN REGENCY","KOVAN RISE",19,103.8850029,1.363238157
"KOVAN RESIDENCES","KOVAN ROAD",19,103.8847363,1.361120438
"KUM HING COURT","TOMLINSON ROAD",10,103.8260778,1.302774042
"L'VIV","NEWTON ROAD",11,103.8406886,1.315438788
"LA FIESTA","SENGKANG SQUARE",19,103.8950072,1.388873246
"LAGUNA GREEN","JALAN HAJIJAH",16,103.9347136,1.312791347
"LAKEHOLMZ","CORPORATION ROAD",22,103.7162114,1.342154221
"LAKEPOINT CONDOMINIUM","LAKEPOINT DRIVE",22,103.7184088,1.341775047
"LAKESIDE APARTMENTS","YUAN CHING ROAD",22,103.7254976,1.335780691
"LAKESIDE TOWER","YUAN CHING ROAD",22,103.7250767,1.338009001
"LAKEVILLE","JURONG LAKE LINK",22,103.7253079,1.345289645
"LANDBAY CONDOMINIUM","JALAN HAJIJAH",16,103.9358893,1.312695684
"LANDMARK TOWER","CHIN SWEE ROAD",3,103.8398331,1.286305834
"LATITUDE","JALAN MUTIARA",10,103.8285069,1.29592895
"LE CRESCENDO","PAYA LEBAR ROAD",14,103.8893264,1.331028703
"LEEDON RESIDENCE","LEEDON HEIGHTS",10,103.8012784,1.312837875
"LEONIE CONDOTEL","LEONIE HILL ROAD",9,103.8345283,1.297692794
"LEONIE GARDENS","LEONIE HILL",9,103.832635,1.298521744
"LINCOLN SUITES","KHIANG GUAN AVENUE",11,103.842666,1.317145788
"LIVIA","PASIR RIS GROVE",18,103.9427226,1.372998753
"LOFT @ NATHAN","NATHAN ROAD",10,103.8276536,1.294472193
"LOTUS AT PASIR PANJANG","PASIR PANJANG ROAD",5,103.7854519,1.279706498
"LOYANG VALLEY","LOYANG AVENUE",17,103.9707822,1.368995361
"LUMIERE","MISTRI ROAD",2,103.8460964,1.274182081
"MANDARIN GARDENS","SIGLAP ROAD",15,103.9250508,1.307764806
"MAPLE WOODS","BUKIT TIMAH ROAD",21,103.7844596,1.334770698
"MARINA BAY RESIDENCES","MARINA BOULEVARD",1,103.8550177,1.279715604
"MARINA BAY SUITES","CENTRAL BOULEVARD",1,103.8521161,1.280393409
"MARINA COLLECTION","COVE DRIVE",4,103.8390602,1.24282122
"MARINE BLUE","MARINE PARADE ROAD",15,103.9051887,1.303416374
"MARTIN PLACE RESIDENCES","MARTIN PLACE",9,103.8384799,1.294233021
"MAYSPRINGS","PETIR ROAD",23,103.7636041,1.376168697
"MEADOWS @ PEIRCE","UPPER THOMSON ROAD",26,103.8282919,1.378514487
"MELROSE PARK","KELLOCK ROAD",10,103.8303594,1.293302056
"MELVILLE PARK","SIMEI STREET 1",18,103.9585258,1.346670058
"MERA SPRINGS","CARLISLE ROAD",8,103.8466942,1.315160889
"MERA WOODS","HILLVIEW AVENUE",23,103.7590834,1.356356924
"MERAPRIME","JALAN BUKIT HO SWEE",3,103.8280042,1.287472446
"MERAWOODS","HILLVIEW AVENUE",23,103.7598338,1.356074525
"MI CASA","CHOA CHU KANG AVENUE 3",23,103.7481083,1.38441352
"MIDTOWN RESIDENCES","UPPER SERANGOON ROAD",19,103.89503,1.370585787
"MILL POINT","ZION CLOSE",10,103.8304302,1.29292761
"MIRAGE TOWER","KIM SENG ROAD",9,103.8345986,1.292226178
"MODENA","SIMEI STREET 4",18,103.9545711,1.342694163
"MONTEBLEU","MINBU ROAD",11,103.850184,1.323837744
"MONTEREY PARK CONDOMINIUM","WEST COAST RISE",5,103.7535615,1.316333863
"MONTROSA","HILLVIEW AVENUE",23,103.7595285,1.356853193
"MONTVIEW","MOUNT SINAI DRIVE",10,103.7774311,1.317350898
"MY MANHATTAN","SIMEI STREET 3",18,103.9532823,1.341363116
"NATURA@HILLVIEW","HILLVIEW TERRACE",23,103.7588383,1.353043409
"NEPTUNE COURT","MARINE VISTA",15,103.921065,1.307294343
"NEWEST","WEST COAST DRIVE",5,103.7573935,1.316453236
"NEWTON EDGE","MAKEWAY AVENUE",9,103.8421717,1.312825482
"NEWTON GEMS","NEWTON ROAD",11,103.8421867,1.317382659
"NEWTON SUITES","NEWTON ROAD",11,103.8426272,1.31799776
"NIN RESIDENCE","PHENG GECK AVENUE",13,103.8699107,1.332407574
"NINE RESIDENCES","YISHUN AVENUE 9",27,103.8415329,1.432744493
"NINETEEN SHELFORD ROAD","SHELFORD ROAD",11,103.8123652,1.326924496
"NORMANTON PARK","NORMANTON PARK",5,103.7934081,1.2877058
"NORTHVALE","CHOA CHU KANG LOOP",23,103.7455653,1.386730992
"NOTTINGHILL SUITES","TOH TUCK ROAD",21,103.7693041,1.339303793
"NOUVEL 18","ANDERSON ROAD",10,103.8281857,1.311346383
"NOVENA COURT","JALAN NOVENA BARAT",11,103.8420579,1.323005676
"NV RESIDENCES","PASIR RIS GROVE",18,103.9436645,1.371303119
"OASIS @ ELIAS","ELIAS ROAD",18,103.9417233,1.376992517
"OCEAN PARK","EAST COAST ROAD",15,103.9189266,1.308209158
"OKIO","BALESTIER ROAD",12,103.8532944,1.322080975
"OLEANAS RESIDENCE","KIM YAM ROAD",9,103.8393086,1.293733589
"OLEANDER TOWERS","LORONG 1 TOA PAYOH",12,103.8442641,1.333109752
"ONE-NORTH RESIDENCES","ONE-NORTH GATEWAY",5,103.7896816,1.302084837
"ONE AMBER","AMBER GARDENS",15,103.8992571,1.301925964
"ONE DEVONSHIRE","DEVONSHIRE ROAD",9,103.8378456,1.297463288
"ONE DUSUN RESIDENCES","JALAN DUSUN",12,103.8436487,1.326967624
"ONE JERVOIS","JERVOIS CLOSE",10,103.8255609,1.292991951
"ONE LEICESTER","LEICESTER ROAD",13,103.8677468,1.330051791
"ONE SHENTON","SHENTON WAY",1,103.8504692,1.279350823
"ONE ST MICHAEL'S","ST. MICHAEL'S ROAD",12,103.8649641,1.325018607
"OPTIMA @ TANAH MERAH","TANAH MERAH KECHIL AVENUE",16,103.9465725,1.32799673
"ORCHARD SCOTTS","ANTHONY ROAD",9,103.8392161,1.310687427
"ORCHID PARK CONDOMINIUM","YISHUN STREET 81",27,103.8349953,1.413096894
"OUE TWIN PEAKS","LEONIE HILL ROAD",9,103.8336355,1.29952933
"PACIFIC MANSION","RIVER VALLEY CLOSE",9,103.8364175,1.294398196
"PALM GARDENS","HONG SAN WALK",23,103.7479479,1.37812175
"PALM ISLES","FLORA DRIVE",17,103.9637511,1.356499546
"PALM SPRING","EWE BOON ROAD",10,103.8312857,1.317265421
"PANDAN VALLEY","PANDAN VALLEY",21,103.7779732,1.318566865
"PARBURY HILL CONDOMINIUM","PARBURY AVENUE",16,103.9429389,1.317825489
"PARC CENTROS","PUNGGOL CENTRAL",17,103.9039544,1.403781248
"PARC ELEGANCE","TELOK KURAU ROAD",15,103.9092157,1.317484566
"PARC EMILY","MOUNT EMILY ROAD",9,103.8495244,1.304597334
"PARC IMPERIAL","PASIR PANJANG ROAD",5,103.7836971,1.281420084
"PARC OASIS","JURONG EAST AVENUE 1",22,103.7332989,1.344125181
"PARC OLYMPIA","FLORA DRIVE",17,103.9643685,1.354883571
"PARC PALAIS","HUME AVENUE",21,103.7648316,1.357039676
"PARC ROSEWOOD","ROSEWOOD DRIVE",25,103.7856642,1.428774736
"PARC SOPHIA","ADIS ROAD",9,103.8474289,1.301633775
"PARC VERA","HOUGANG STREET 32",19,103.8950059,1.364146576
"PARC VISTA","CORPORATION ROAD",22,103.7174691,1.344156313
"PARK EAST","JALAN TUA KONG",15,103.923796,1.318501138
"PARK INFINIA AT WEE NAM","LINCOLN ROAD",11,103.8442634,1.31533332
"PARK NATURA","BUKIT BATOK EAST AVENUE 6",23,103.7663316,1.346526237
"PARK VIEW MANSION","YUAN CHING ROAD",22,103.7255927,1.334938125
"PARK WEST","JALAN LEMPENG",5,103.7601202,1.318127485
"PARKSHORE","TANJONG RHU ROAD",15,103.8706864,1.296756543
"PARKVIEW APARTMENTS","BUKIT BATOK STREET 25",23,103.7604597,1.340991213
"PARVIS","HOLLAND HILL",10,103.8006617,1.31042156
"PATERSON RESIDENCE","PATERSON ROAD",9,103.8296395,1.300620308
"PATERSON SUITES","PATERSON ROAD",9,103.8307102,1.301518715
"PAVILION 11","AKYAB ROAD",11,103.8483513,1.324422035
"PAYA LEBAR RESIDENCES","PAYA LEBAR ROAD",14,103.8917434,1.317690467
"PEARL BANK APARTMENT","PEARL BANK",3,103.8397852,1.282934652
"PEBBLE BAY","TANJONG RHU ROAD",15,103.8708816,1.298140559
"PEOPLE'S PARK COMPLEX","PARK ROAD",1,103.8425225,1.284209723
"PINEWOOD GARDENS","BALMORAL PARK",10,103.82965,1.3158006
"POLLEN & BLEU","FARRER DRIVE",10,103.8066792,1.313680949
"PRESTIGE HEIGHTS","BALESTIER ROAD",12,103.8524916,1.325602958
"Q BAY RESIDENCES","TAMPINES STREET 86",18,103.9270784,1.350154064
"QUEENS","STIRLING ROAD",3,103.8067532,1.292615493
"QUESTA @ DUNMAN","DUNMAN ROAD",15,103.8968052,1.309955288
"RAFFLESIA CONDOMINIUM","BISHAN STREET 21",20,103.8430122,1.347648982
"REFLECTIONS AT KEPPEL BAY","KEPPEL BAY VIEW",4,103.814601,1.268530187
"REGENCY PARK","NATHAN ROAD",10,103.8267267,1.295826489
"REGENT GROVE","CHOA CHU KANG NORTH 7",23,103.7488575,1.399222696
"REGENT HEIGHTS","BUKIT BATOK EAST AVENUE 5",23,103.7561992,1.353159782
"REGENT PARK","JALAN LEMPENG",5,103.7610565,1.31730767
"REGENT RESIDENCES","SERANGOON ROAD",12,103.864673,1.324209713
"REGENTVILLE","HOUGANG STREET 92",19,103.8778551,1.373802583
"RESIDENCES @ EVELYN","EVELYN ROAD",11,103.8394401,1.315459246
"RESIDENCES AT W SPORE SENTOSA CV","OCEAN WAY",4,103.8414724,1.249110684
"REZI 26","LORONG 26 GEYLANG",14,103.8851753,1.313016059
"RICHMOND PARK","BIDEFORD ROAD",9,103.8366468,1.305417047
"RIDGEWOOD","RIDGEWOOD CLOSE",10,103.7795661,1.317463127
"RIO VISTA","UPPER SERANGOON VIEW",19,103.90154,1.373364301
"RIPPLE BAY","PASIR RIS LINK",18,103.9613703,1.377341249
"RIS GRANDEUR","ELIAS ROAD",18,103.9403813,1.374384407
"RIVER ISLES","EDGEDALE PLAINS",19,103.9139803,1.39696608
"RIVER PLACE","HAVELOCK ROAD",3,103.8414459,1.29018081
"RIVERBANK @ FERNVALE","FERNVALE CLOSE",28,103.8811639,1.394550249
"RIVERBAY","MAR THOMA ROAD",12,103.8629407,1.328207709
"RIVEREDGE","SAMPAN PLACE",15,103.8823853,1.301174951
"RIVERGATE","ROBERTSON QUAY",9,103.8370525,1.29181371
"RIVERSAILS","UPPER SERANGOON CRESCENT",19,103.9024329,1.378548933
"RIVERSOUND RESIDENCE","SENGKANG EAST AVENUE",19,103.9020382,1.381168361
"RIVERTREES RESIDENCES","FERNVALE CLOSE",28,103.8811424,1.394099384
"RIVERVALE CREST","RIVERVALE CRESCENT",19,103.9043251,1.39169388
"RIVIERA 38","MAR THOMA ROAD",12,103.8637868,1.328370825
"ROBERTSON 100","ROBERTSON QUAY",9,103.8378739,1.291366306
"ROBIN RESIDENCES","ROBIN DRIVE",10,103.8279359,1.319388834
"ROBINSON SUITES","ROBINSON ROAD",1,103.8499079,1.280874193
"ROCHELLE AT NEWTON","KENG LEE ROAD",11,103.8420445,1.314296339
"ROSEWOOD","ROSEWOOD DRIVE",25,103.7869287,1.431350904
"ROSEWOOD SUITES","ROSEWOOD DRIVE",25,103.7857572,1.42954662
"RV EDGE","SHANGHAI ROAD",10,103.8280031,1.294806425
"RV RESIDENCES","RIVER VALLEY ROAD",10,103.8285201,1.294421396
"SANCTUARY GREEN","TANJONG RHU ROAD",15,103.8713985,1.296791204
"SANT RITZ","PHENG GECK AVENUE",13,103.8692531,1.329619741
"SAVANNAH CONDOPARK","SIMEI RISE",18,103.9608691,1.349770287
"SCOTTS 28","SCOTTS ROAD",9,103.8361299,1.310109919
"SCOTTS SQUARE","SCOTTS ROAD",9,103.8330182,1.305836409
"SEA ESTA","PASIR RIS LINK",18,103.9600545,1.378020165
"SEAHILL","WEST COAST CRESCENT",5,103.7641855,1.298605813
"SEASCAPE","COVE WAY",4,103.8376193,1.239288894
"SEASONS PARK","YIO CHU KANG ROAD",26,103.839185,1.385199014
"SEASONS VIEW","PEMIMPIN DRIVE",20,103.8414952,1.352074425
"SEASTRAND","PASIR RIS LINK",18,103.9609242,1.375640928
"SELETAR PARK RESIDENCE","SELETAR ROAD",28,103.8692608,1.386620869
"SELETAR SPRINGS CONDOMINIUM","GERALD DRIVE",28,103.8785346,1.387631899
"SELETARIS","SEMBAWANG ROAD",27,103.8248902,1.436699337
"SENNETT RESIDENCE","PHENG GECK AVENUE",13,103.8696357,1.330702178
"SERENITY PARK","TAMARIND ROAD",28,103.8593487,1.389542789
"SEVENTY SAINT PATRICK'S","ST. PATRICK'S ROAD",15,103.9150045,1.308294546
"SHAW PLAZA - TWIN HEIGHTS","BALESTIER ROAD",12,103.851241,1.324803855
"SHERWOOD TOWER","JALAN ANAK BUKIT",21,103.7785354,1.338553933
"SIGLAP V","FIRST STREET",15,103.9237254,1.312693914
"SIGNATURE PARK","TOH TUCK ROAD",21,103.767813,1.340892403
"SILVERSEA","MARINE PARADE ROAD",15,103.902764,1.2998671
"SIMS URBAN OASIS","SIMS DRIVE",14,103.8814267,1.319258568
"SIMSVILLE","GEYLANG EAST AVENUE 2",14,103.8890149,1.316861707
"SKIES MILTONIA","MILTONIA CLOSE",27,103.8478023,1.418149827
"SKY GREEN","MACPHERSON ROAD",13,103.886381,1.332505734
"SKY HABITAT","BISHAN STREET 15",20,103.8516673,1.352630244
"SKY VUE","BISHAN STREET 15",20,103.8507838,1.352242857
"SKY@ELEVEN","THOMSON LANE",11,103.840699,1.331312091
"SKYLINE RESIDENCES","TELOK BLANGAH ROAD",4,103.8078142,1.271591219
"SKYSUITES@ANSON","ENGGOR STREET",2,103.8446594,1.274695942
"SKYSUITES17","JALAN RAJAH",12,103.847653,1.327681068
"SOLEIL @ SINARAN","SINARAN DRIVE",11,103.8451193,1.319521006
"SOMMERVILLE PARK","SOMMERVILLE ESTATE ROAD",10,103.8064956,1.312255248
"SOPHIA RESIDENCE","SOPHIA ROAD",9,103.8485532,1.301320989
"SOUTHAVEN I","HINDHEDE WALK",21,103.7728718,1.347848896
"SOUTHAVEN II","HINDHEDE WALK",21,103.7737507,1.346414847
"SOUTHBANK","NORTH BRIDGE ROAD",7,103.8641907,1.30627183
"SPACE @ KOVAN","YIO CHU KANG ROAD",19,103.8768096,1.354722906
"SPANISH VILLAGE","FARRER ROAD",10,103.805271,1.31413714
"SPOTTISWOODE 18","SPOTTISWOODE PARK ROAD",2,103.8374546,1.275524367
"SPOTTISWOODE PARK","SPOTTISWOODE PARK ROAD",2,103.8359797,1.275190338
"SPOTTISWOODE RESIDENCES","SPOTTISWOODE PARK ROAD",2,103.836741,1.275313044
"SPOTTISWOODE SUITES","SPOTTISWOODE PARK ROAD",2,103.8374476,1.275988683
"SPRING GROVE","GRANGE ROAD",10,103.8268957,1.297643883
"SPRINGDALE CONDOMINIUM","HINDHEDE WALK",21,103.7723315,1.348332885
"ST REGIS RESIDENCES SINGAPORE","TANGLIN ROAD",10,103.8262656,1.305382585
"ST THOMAS SUITES","ST. THOMAS WALK",9,103.8366871,1.298485727
"STARLIGHT SUITES","RIVER VALLEY CLOSE",9,103.8373583,1.293792082
"STARVILLE","LENGKONG TIGA",14,103.9123026,1.328409029
"STELLAR RV","RIVER VALLEY ROAD",10,103.8285319,1.295228188
"STRATA","ESSEX ROAD",11,103.8453189,1.317537263
"STRATFORD COURT","BEDOK RIA CRESCENT",16,103.9525901,1.328578408
"STRATUM","ELIAS ROAD",18,103.9434259,1.378844773
"SUITES @ EASTCOAST","UPPER EAST COAST ROAD",15,103.9321854,1.314296073
"SUITES AT ORCHARD","HANDY ROAD",9,103.846031,1.300482335
"SUMMERHILL","HUME AVENUE",21,103.76559,1.359832447
"SUNGLADE","SERANGOON AVENUE 2",19,103.8710484,1.34884573
"SUNHAVEN","UPPER CHANGI ROAD EAST",16,103.9629115,1.348335209
"SUNSHINE PLAZA","BENCOOLEN STREET",7,103.8506415,1.300595724
"SUNVILLE","ST. MICHAEL'S ROAD",12,103.8641312,1.327412733
"SYMPHONY HEIGHTS","HUME AVENUE",21,103.7670512,1.356587495
"TAMPINES COURT","TAMPINES STREET 11",18,103.9468117,1.344968889
"TANAMERA CREST","PARI DEDAP WALK",16,103.9423272,1.332806943
"TANGLIN PARK","RIDLEY PARK",10,103.8156183,1.300151094
"TANGLIN REGENCY","TANGLIN ROAD",10,103.8166093,1.291939265
"TANGLIN VIEW","PRINCE CHARLES CRESCENT",3,103.8173731,1.292008504
"TANJONG RIA CONDOMINIUM","TANJONG RHU ROAD",15,103.8747125,1.297150997
"TERESA VILLE","LOWER DELTA ROAD",4,103.8240304,1.275930771
"TERRASSE","TERRASSE LANE",19,103.8772519,1.368924773
"TERRENE AT BUKIT TIMAH","JALAN JURONG KECHIL",21,103.7710331,1.341096598
"TEXTILE CENTRE","JALAN SULTAN",7,103.8614709,1.30357892
"THE ALCOVE","LORONG 27 GEYLANG",14,103.8842026,1.314281964
"THE ANCHORAGE","ALEXANDRA ROAD",3,103.8050869,1.289501617
"THE ANSLEY","MANDALAY ROAD",11,103.8491098,1.323516188
"THE ARCADIA","ARCADIA ROAD",11,103.8103209,1.333976134
"THE ARTE","JALAN RAJA UDANG",12,103.8422986,1.328202633
"THE ATRIA AT MEYER","MEYER ROAD",15,103.8892903,1.297411077
"THE AZURE","OCEAN DRIVE",4,103.847788,1.252115431
"THE BAYSHORE","BAYSHORE ROAD",16,103.9393525,1.312643961
"THE BEACON","CANTONMENT ROAD",2,103.8406983,1.276185923
"THE BELVEDERE","MEYER ROAD",15,103.8876065,1.296985963
"THE BENCOOLEN","BENCOOLEN STREET",7,103.8534078,1.301560574
"THE BERTH BY THE COVE","OCEAN DRIVE",4,103.8467228,1.24982158
"THE BEVERLY","TOH TUCK ROAD",21,103.7671421,1.339334059
"THE BLOSSOMVALE","DUNEARN ROAD",21,103.7828532,1.338083836
"THE BOUTIQ","KILLINEY ROAD",9,103.8385902,1.296588523
"THE CALROSE","YIO CHU KANG ROAD",26,103.8369338,1.383092362
"THE CASCADIA","BUKIT TIMAH ROAD",21,103.7877647,1.333843477
"THE CENTRIS","JURONG WEST CENTRAL 3",22,103.7059355,1.339282691
"THE CHUAN","LORONG CHUAN",19,103.860944,1.350161735
"THE CLAYMORE","CLAYMORE ROAD",9,103.8316103,1.309337998
"THE CLEARWATER","BEDOK RESERVOIR VIEW",16,103.934621,1.337456503
"THE CLIFT","MCCALLUM STREET",1,103.8472833,1.279461664
"THE COAST AT SENTOSA COVE","OCEAN DRIVE",4,103.8444996,1.246871619
"THE COSMOPOLITAN","KIM SENG ROAD",9,103.8321866,1.295739162
"THE CREST","PRINCE CHARLES CRESCENT",3,103.8204573,1.292758284
"THE DAIRY FARM","DAIRY FARM ROAD",23,103.7700765,1.365519453
"THE DRAYCOTT","DRAYCOTT PARK",10,103.8312907,1.311937164
"THE ESTA","AMBER GARDENS",15,103.9003986,1.302280385
"THE ESTUARY","YISHUN AVENUE 1",27,103.8305207,1.410433907
"THE FORESTA @ MOUNT FABER","WISHART ROAD",4,103.8140264,1.270279019
"THE GALE","FLORA ROAD",17,103.9668867,1.359124878
"THE GARDENS AT BISHAN","SIN MING WALK",20,103.8305892,1.36492258
"THE GLADES","BEDOK RISE",16,103.9484434,1.327395665
"THE GLYNDEBOURNE","TREVOSE CRESCENT",11,103.8236097,1.322374943
"THE GREENWICH","SELETAR ROAD",28,103.8699593,1.386598054
"THE HELICONIA","JALAN DAUD",14,103.9094968,1.3270128
"THE HILLFORD","JALAN JURONG KECHIL",21,103.7696529,1.344233964
"THE HILLIER","HILLVIEW RISE",23,103.7646294,1.363984628
"THE HILLSIDE","UPPER BUKIT TIMAH ROAD",21,103.7679678,1.352874997
"THE IMPERIAL","JALAN RUMBIA",9,103.8423047,1.2946777
"THE INFINITI","WEST COAST PARK",5,103.7553271,1.318936211
"THE INFLORA","FLORA DRIVE",17,103.9666438,1.356246229
"THE INSPIRA","ARNASALAM CHETTY ROAD",9,103.8389157,1.291928119
"THE INTERLACE","DEPOT ROAD",4,103.8030757,1.282259565
"THE INTERWEAVE","KIM KEAT ROAD",12,103.8535109,1.325808313
"THE JADE","BUKIT BATOK CENTRAL LINK",23,103.7496176,1.349253973
"THE LAKEFRONT RESIDENCES","LAKESIDE DRIVE",22,103.7189666,1.343089903
"THE LAKESHORE","JURONG WEST STREET 41",22,103.723416,1.345856262
"THE LANAI","HILLVIEW AVENUE",23,103.7612705,1.35596801
"THE LAURELS","CAIRNHILL ROAD",9,103.8375162,1.304718529
"THE LEVELZ","FARRER ROAD",10,103.8053641,1.314031366
"THE LIGHT @ CAIRNHILL","CAIRNHILL ROAD",9,103.8378471,1.306126388
"THE LINEAR","UPPER BUKIT TIMAH ROAD",23,103.762941,1.375328735
"THE LUXURIE","COMPASSVALE ROAD",19,103.896325,1.388405283
"THE MADEIRA","BUKIT BATOK STREET 31",23,103.7495617,1.356887376
"THE MAKENA","MEYER ROAD",15,103.8941144,1.296649871
"THE MARBELLA","MOUNT SINAI RISE",10,103.7777956,1.314519762
"THE MAYFAIR","JURONG EAST STREET 32",22,103.7335003,1.346027806
"THE MERASAGA","JALAN MERAH SAGA",10,103.7971923,1.311400963
"THE METROPOLITAN CONDOMINIUM","ALEXANDRA ROAD",3,103.8155881,1.290619267
"THE METZ","DEVONSHIRE ROAD",9,103.8373454,1.299609817
"THE MEYERISE","MEYER ROAD",15,103.8929188,1.296716727
"THE MEZZO","BALESTIER ROAD",12,103.8525357,1.320481877
"THE MILTONIA RESIDENCES","MILTONIA CLOSE",27,103.8477168,1.417555413
"THE MINTON","HOUGANG STREET 11",19,103.8819785,1.352972877
"THE MONTANA","JALAN MUTIARA",10,103.8294807,1.296462409
"THE NAUTICAL","JALAN SENDUDOK",27,103.8246422,1.44374974
"THE NEXUS","BUKIT TIMAH ROAD",21,103.7862615,1.333877831
"THE OCEANFRONT @ SENTOSA COVE","OCEAN DRIVE",4,103.8425985,1.244724167
"THE ORCHARD RESIDENCES","ORCHARD BOULEVARD",9,103.8316284,1.303785293
"THE PALETTE","PASIR RIS GROVE",18,103.9440274,1.369503659
"THE PANORAMA","ANG MO KIO AVENUE 2",20,103.8338231,1.375427276
"THE PARC CONDOMINIUM","WEST COAST WALK",5,103.7611863,1.310050106
"THE PEAK@BALMEG","BALMEG HILL",5,103.7831964,1.282759671
"THE PEARL @ MOUNT FABER","MOUNT FABER ROAD",4,103.824695,1.270524755
"THE PETALS","HILLVIEW AVENUE",23,103.7606262,1.353076539
"THE PIER AT ROBERTSON","MOHAMED SULTAN ROAD",9,103.8407873,1.291455183
"THE PLAZA","BEACH ROAD",7,103.8607405,1.299915925
"THE PROMENADE@PELIKAT","JALAN PELIKAT",19,103.8877869,1.355360496
"THE QUARTZ","COMPASSVALE BOW",19,103.8944433,1.381490348
"THE QUINN","BARTLEY ROAD",19,103.8725533,1.344072554
"THE RAINTREE","BUKIT DRIVE",21,103.7744323,1.348881217
"THE REGALIA","RIVER VALLEY CLOSE",9,103.8372874,1.295385525
"THE REGENCY AT TIONG BAHRU","CHAY YAN STREET",3,103.8305024,1.281918183
"THE RESIDENCES AT W SINGAPORE SENTOSA COVE","OCEAN WAY",4,103.8414724,1.249110684
"THE RIVERWALK","UPPER CIRCULAR ROAD",1,103.8483404,1.288918966
"THE ROCHESTER","ROCHESTER DRIVE",5,103.7883387,1.305335704
"THE SAIL @ MARINA BAY","MARINA BOULEVARD",1,103.8525039,1.280787242
"THE SANTORINI","TAMPINES STREET 86",18,103.9277983,1.351857076
"THE SCALA","SERANGOON AVENUE 3",19,103.8650625,1.351086097
"THE SCOTTS TOWER","SCOTTS ROAD",9,103.835516,1.309968539
"THE SEA VIEW","AMBER ROAD",15,103.9019463,1.301192703
"THE SEAFRONT ON MEYER","MEYER ROAD",15,103.8888312,1.297319864
"THE SEAWIND","LORONG M TELOK KURAU",15,103.9144744,1.311081386
"THE SHELFORD","SHELFORD ROAD",11,103.8117858,1.325386886
"THE SHORE RESIDENCES","AMBER ROAD",15,103.9010309,1.302726017
"THE SIXTH AVENUE RESIDENCES","SIXTH AVENUE",10,103.7929574,1.32643629
"THE SKYWOODS","DAIRY FARM HEIGHTS",23,103.7717958,1.365806189
"THE SORRENTO","WEST COAST ROAD",5,103.7664706,1.295684517
"THE SOUND","EAST COAST ROAD",15,103.914694,1.310259587
"THE SPRINGBLOOM","SERANGOON AVENUE 3",19,103.8626033,1.350683959
"THE STELLAR","WEST COAST ROAD",5,103.7679457,1.293948827
"THE STERLING","BUKIT TIMAH ROAD",21,103.7818001,1.335090055
"THE SUITES AT CENTRAL","DEVONSHIRE ROAD",9,103.8370629,1.298767498
"THE SUMMIT","UPPER EAST COAST ROAD",16,103.9407003,1.316775132
"THE SUNNY SPRING","LORONG 40 GEYLANG",14,103.8895423,1.312255168
"THE TANAMERA","TANAH MERAH KECHIL ROAD",16,103.9428209,1.327148545
"THE TEMBUSU","TAMPINES ROAD",19,103.8903372,1.361558973
"THE TENNERY","WOODLANDS ROAD",23,103.7599477,1.380749501
"THE TESSARINA","WILBY ROAD",10,103.7890534,1.332143051
"THE TREVOSE","TREVOSE CRESCENT",11,103.8252436,1.322548853
"THE TRILINQ","JALAN LEMPENG",5,103.761986,1.318747608
"THE TRILLIUM","KIM SENG ROAD",9,103.8326951,1.294175096
"THE TRIZON","RIDGEWOOD CLOSE",10,103.7778547,1.316442557
"THE TROPICA","TAMPINES AVENUE 1",18,103.9272959,1.348755984
"THE TRUMPS","JALAN KEMBANGAN",14,103.9137162,1.320619087
"THE VENUE RESIDENCES","TAI THONG CRESCENT",13,103.8693564,1.329227675
"THE VERMONT ON CAIRNHILL","CAIRNHILL RISE",9,103.8387425,1.308438609
"THE VERVE","JALAN RAJAH",12,103.8480584,1.327807303
"THE VIRIDIAN","JALAN AMPAS",12,103.8515821,1.326072809
"THE VISION","WEST COAST CRESCENT",5,103.7645633,1.298269444
"THE WARREN","CHOA CHU KANG LOOP",23,103.7434276,1.386438792
"THE WATERINA","LORONG 40 GEYLANG",14,103.8903534,1.312413677
"THE WATERLINE","POH HUAT ROAD WEST",19,103.8764351,1.367364374
"THE WATERSIDE","TANJONG RHU ROAD",15,103.8826918,1.29677456
"THE WHARF RESIDENCE","TONG WATT ROAD",9,103.8402657,1.293292218
"THE WINDSOR","ONTARIO AVENUE",20,103.8279812,1.357749568
"THOMSON 800","THOMSON ROAD",11,103.8388296,1.341190976
"THOMSON EURO-ASIA","THOMSON ROAD",11,103.8453506,1.318181673
"THOMSON GRAND","SIN MING WALK",20,103.8300973,1.364873207
"THOMSON THREE","BRIGHT HILL DRIVE",20,103.8301955,1.357761786
"THOMSON VIEW CONDOMINIUM","BRIGHT HILL DRIVE",20,103.8316568,1.357012562
"TIARA","KIM SENG WALK",9,103.8312436,1.295451203
"TIERRA VUE","ST. PATRICK'S ROAD",15,103.9138539,1.308139313
"TIONG BAHRU ESTATE","CHAY YAN STREET",3,103.8308633,1.282474033
"TREE HOUSE","CHESTNUT AVENUE",23,103.7760852,1.369905871
"TRELLIS TOWERS","LORONG 1 TOA PAYOH",12,103.8443833,1.33123984
"TRESALVEO","MARYMOUNT TERRACE",20,103.8407855,1.351001334
"TREVISTA","LORONG 3 TOA PAYOH",12,103.8466021,1.337530685
"TREVOSE PARK","TREVOSE CRESCENT",11,103.8256902,1.324594298
"TRIBECA","KIM SENG ROAD",9,103.83486,1.291090563
"TRILIGHT","NEWTON ROAD",11,103.839946,1.31458472
"TROPICAL SPRING","SIMEI STREET 4",18,103.9553274,1.341298729
"TROPIKA EAST","FOO KIM LIN ROAD",14,103.9070283,1.32899134
"TULIP GARDEN","FARRER ROAD",10,103.8030793,1.313467203
"TWIN REGENCY","KIM TIAN ROAD",3,103.8283556,1.284583748
"UE SQUARE","RIVER VALLEY ROAD",9,103.8417262,1.29303179
"URBAN SUITES","HULLET ROAD",9,103.8383693,1.303653381
"URBAN VISTA","TANAH MERAH KECHIL LINK",16,103.9447326,1.327118049
"URBANA","RIVER VALLEY CLOSE",9,103.8385214,1.295362022
"VACANZA @ EAST","LENGKONG TUJOH",14,103.9141795,1.329058975
"VALLEY PARK","RIVER VALLEY ROAD",10,103.8286598,1.293230133
"VARSITY PARK CONDOMINIUM","WEST COAST ROAD",5,103.7671111,1.294563144
"VERSILIA ON HAIG","IPOH LANE",15,103.8960939,1.312319799
"VIBES @ EAST COAST","TELOK KURAU ROAD",15,103.9117105,1.309576148
"VIDA","PECK HAY ROAD",9,103.8393457,1.308599488
"VILLA DELLE ROSE","TAMAN NAKHODA",10,103.8076906,1.312435192
"VILLA MARINA","JALAN SEMPADAN",15,103.9275362,1.311534414
"VILLAGE @ PASIR PANJANG","PASIR PANJANG ROAD",5,103.7699681,1.290909457
"VISIONCREST","OXLEY RISE",9,103.8427438,1.298278007
"VISTA PARK","SOUTH BUONA VISTA ROAD",5,103.7889066,1.28140492
"VISTA RESIDENCES","JALAN DATOH",12,103.8433581,1.32786315
"VIVA","SUFFOLK WALK",11,103.8444403,1.315614277
"VIVA VISTA","SOUTH BUONA VISTA ROAD",5,103.7860728,1.279495321
"VIZ AT HOLLAND","QUEENSWAY",10,103.8026079,1.308786144
"VUE 8 RESIDENCE","PASIR RIS HEIGHTS",18,103.940923,1.382020481
"WATER PLACE","TANJONG RHU ROAD",15,103.8728542,1.296709388
"WATERBANK AT DAKOTA","DAKOTA CRESCENT",14,103.8880388,1.306573745
"WATERFORD RESIDENCE","KIM YAM ROAD",9,103.8394097,1.294076114
"WATERFRONT GOLD","BEDOK RESERVOIR ROAD",16,103.928475,1.338488599
"WATERFRONT ISLE","BEDOK RESERVOIR ROAD",16,103.9275231,1.338651922
"WATERFRONT KEY","BEDOK RESERVOIR ROAD",16,103.9310156,1.337755342
"WATERFRONT WAVES","BEDOK RESERVOIR ROAD",16,103.9299674,1.338144702
"WATERMARK ROBERTSON QUAY","RODYK STREET",9,103.838243,1.29086099
"WATERSCAPE AT CAVENAGH","CAVENAGH ROAD",9,103.8407411,1.304005551
"WATERTOWN","PUNGGOL CENTRAL",19,103.902744,1.406534609
"WATERVIEW","TAMPINES AVENUE 1",18,103.926124,1.348041243
"WEST BAY CONDOMINIUM","WEST COAST CRESCENT",5,103.7655463,1.299342421
"WESTCOVE CONDOMINIUM","WEST COAST CRESCENT",5,103.7662932,1.298296187
"WHITEHAVEN","PASIR PANJANG ROAD",5,103.7773206,1.289631838
"WING FONG MANSIONS","LORONG 14 GEYLANG",14,103.8791546,1.311213395
"WOODGROVE CONDOMINIUM","WOODGROVE DRIVE",25,103.7830393,1.429219788
"WOODHAVEN","WOODGROVE AVENUE",25,103.7841472,1.42974897
"YISHUN EMERALD","CANBERRA DRIVE",27,103.8303159,1.439020268
"YISHUN SAPPHIRE","CANBERRA DRIVE",27,103.8305139,1.440272419
"YONG AN PARK","RIVER VALLEY ROAD",9,103.8341381,1.295361099
"ZEDGE","AKYAB ROAD",11,103.8481295,1.322314704
